{
  "norad_id": 65752,
  "name": "STARLINK-34893",
  "history": [
    {
      "epoch": "2026-03-28T17:00:26.258400",
      "apogee_km": 475.75988736207364,
      "perigee_km": 474.6003061093061,
      "latitude_deg": -2.595858695969925,
      "longitude_deg": 103.22917599999346,
      "semi_major_axis_km": 6853.317096735689,
      "eccentricity": 8.46e-05,
      "inclination_deg": 53.1584,
      "raan_deg": 244.68,
      "arg_perigee_deg": 82.5269,
      "mean_anomaly_deg": 277.5828,
      "mean_motion_rev_day": 15.30211713
    }
  ]
}